SKYNET 4E               
1 25639U 99009B   17345.83969659 -.00000039  00000-0  00000+0 0  9999
2 25639  10.2825  27.2488 0003336 242.9961 111.5999  1.00273064 68837
